H1 CPF 01  gfz 2022 03 22 01  5811 tandemx   
H2 1003001  6202 36605    2022 03 22 00 59 42 2022 03 27 00 00 42   120 1 1  0 0 0
H9
10 0 59662  62622.000000  0    6797029.029   1096423.028    246015.784
10 0 59662  62742.000000  0    6731316.162    906097.438   1145883.628
10 0 59662  62862.000000  0    6544468.554    702139.935   2025574.482
10 0 59662  62982.000000  0    6239542.935    490207.516   2869592.917
10 0 59662  63102.000000  0    5821781.170    276026.783   3663074.895
10 0 59662  63222.000000  0    5298513.111     65253.919   4392056.185
10 0 59662  63342.000000  0    4679018.964   -136660.271   5043720.264
10 0 59662  63462.000000  0    3974355.113   -324599.977   5606625.392
10 0 59662  63582.000000  0    3197145.601   -493903.645   6070902.180
10 0 59662  63702.000000  0    2361348.082   -640469.653   6428421.469
10 0 59662  63822.000000  0    1481997.817   -760848.143   6672930.988
10 0 59662  63942.000000  0     574933.128   -852316.776   6800160.112
10 0 59662  64062.000000  0    -343492.447   -912938.717   6807888.991
10 0 59662  64182.000000  0   -1256704.618   -941602.316   6695983.714
10 0 59662  64302.000000  0   -2148206.208   -938041.519   6466397.877
10 0 59662  64422.000000  0   -3001873.454   -902836.422   6123140.326
10 0 59662  64542.000000  0   -3802247.827   -837394.269   5672211.144
10 0 59662  64662.000000  0   -4534820.095   -743911.958   5121503.628
10 0 59662  64782.000000  0   -5186300.101   -625320.178   4480671.868
10 0 59662  64902.000000  0   -5744865.924   -485209.800   3760965.454
10 0 59662  65022.000000  0   -6200386.950   -327742.154   2975034.285
10 0 59662  65142.000000  0   -6544617.355   -157545.042   2136707.723
10 0 59662  65262.000000  0   -6771356.051     20403.721   1260748.716
10 0 59662  65382.000000  0   -6876566.263    200901.260    362587.552
10 0 59662  65502.000000  0   -6858451.848    378650.615   -541958.257
10 0 59662  65622.000000  0   -6717487.909    548394.718  -1436971.947
10 0 59662  65742.000000  0   -6456404.895    705049.122  -2306725.474
10 0 59662  65862.000000  0   -6080130.322    843830.495  -3135962.081
10 0 59662  65982.000000  0   -5595685.550    960378.120  -3910170.635
10 0 59662  66102.000000  0   -5012040.757   1050864.578  -4615839.896
10 0 59662  66222.000000  0   -4339935.820   1112093.268  -5240690.742
10 0 59662  66342.000000  0   -3591670.897   1141580.646  -5773882.260
10 0 59662  66462.000000  0   -2780872.724   1137621.448  -6206189.767
10 0 59662  66582.000000  0   -1922241.530   1099335.663  -6530152.742
10 0 59662  66702.000000  0   -1031282.986   1026698.390  -6740192.355
10 0 59662  66822.000000  0    -124030.634    920550.330  -6832696.159
10 0 59662  66942.000000  0     783235.385    782589.801  -6806072.685
10 0 59662  67062.000000  0    1674272.716    615346.132  -6660778.362
10 0 59662  67182.000000  0    2533162.067    422134.449  -6399310.857
10 0 59662  67302.000000  0    3344585.948    206993.184  -6026170.742
10 0 59662  67422.000000  0    4094098.594    -25395.635  -5547791.366
10 0 59662  67542.000000  0    4768381.857   -269802.208  -4972438.665
10 0 59662  67662.000000  0    5355486.497   -520558.760  -4310080.896
10 0 59662  67782.000000  0    5845051.897   -771682.376  -3572225.967
10 0 59662  67902.000000  0    6228499.053  -1017008.167  -2771730.182
10 0 59662  68022.000000  0    6499193.232  -1250330.514  -1922580.037
10 0 59662  68142.000000  0    6652571.687  -1465548.522  -1039649.440
10 0 59662  68262.000000  0    6686231.613  -1656812.236   -138437.103
10 0 59662  68382.000000  0    6599976.550  -1818666.223    765210.489
10 0 59662  68502.000000  0    6395818.337  -1946186.652   1655386.048
10 0 59662  68622.000000  0    6077934.104  -2035108.341   2516410.278
10 0 59662  68742.000000  0    5652579.727  -2081938.049   3333117.476
10 0 59662  68862.000000  0    5127960.713  -2084050.873   4091129.826
10 0 59662  68982.000000  0    4514065.642  -2039768.010   4777114.178
10 0 59662  69102.000000  0    3822468.258  -1948413.273   5379017.807
10 0 59662  69222.000000  0    3066100.420  -1810348.564   5886280.402
10 0 59662  69342.000000  0    2259001.223  -1626986.482   6290014.965
10 0 59662  69462.000000  0    1416050.817  -1400780.812   6583157.692
10 0 59662  69582.000000  0     552691.906  -1135194.959   6760586.008
10 0 59662  69702.000000  0    -315355.350   -834648.191   6819202.392
10 0 59662  69822.000000  0   -1172379.219   -504441.483   6757983.900
10 0 59662  69942.000000  0   -2002959.413   -150664.230   6577998.660
10 0 59662  70062.000000  0   -2792243.308    219917.600   6282388.572
10 0 59662  70182.000000  0   -3526211.722    599989.813   5876318.775
10 0 59662  70302.000000  0   -4191930.804    981832.538   5366893.425
10 0 59662  70422.000000  0   -4777785.403   1357474.907   4763037.353
10 0 59662  70542.000000  0   -5273689.061   1718859.873   4075345.073
10 0 59662  70662.000000  0   -5671265.941   2058014.920   3315898.016
10 0 59662  70782.000000  0   -5964000.407   2367225.256   2498053.916
10 0 59662  70902.000000  0   -6147352.031   2639205.657   1636211.148
10 0 59662  71022.000000  0   -6218832.723   2867267.111    745550.819
10 0 59662  71142.000000  0   -6178041.588   3045473.291   -158238.449
10 0 59662  71262.000000  0   -6026657.621   3168782.865  -1059245.312
10 0 59662  71382.000000  0   -5768390.535   3233173.617  -1941624.741
10 0 59662  71502.000000  0   -5408890.745   3235746.261  -2789885.672
10 0 59662  71622.000000  0   -4955619.826   3174803.958  -3589169.073
10 0 59662  71742.000000  0   -4417687.205   3049906.709  -4325510.629
10 0 59662  71862.000000  0   -3805657.447   2861899.528  -4986082.466
10 0 59662  71982.000000  0   -3131333.990   2612914.181  -5559410.406
10 0 59662  72102.000000  0   -2407525.898   2306345.903  -6035563.392
10 0 59662  72222.000000  0   -1647800.909   1946805.693  -6406315.924
10 0 59662  72342.000000  0    -866229.467   1540048.249  -6665277.767
10 0 59662  72462.000000  0     -77127.279   1092878.851  -6807992.936
10 0 59662  72582.000000  0     705201.091    613040.196  -6832007.434
10 0 59662  72702.000000  0    1466714.929    109081.306  -6736908.736
10 0 59662  72822.000000  0    2193884.588   -409791.727  -6524331.661
10 0 59662  72942.000000  0    2873925.908   -933879.253  -6197933.058
10 0 59662  73062.000000  0    3495022.184  -1453164.542  -5763335.665
10 0 59662  73182.000000  0    4046528.415  -1957499.947  -5228041.298
10 0 59662  73302.000000  0    4519157.481  -2436802.789  -4601313.370
10 0 59662  73422.000000  0    4905142.070  -2881255.804  -3894027.148
10 0 59662  73542.000000  0    5198369.780  -3281507.687  -3118490.978
10 0 59662  73662.000000  0    5394489.504  -3628870.193  -2288239.364
10 0 59662  73782.000000  0    5490984.593  -3915507.040  -1417799.725
10 0 59662  73902.000000  0    5487210.360  -4134610.117   -522438.055
10 0 59662  74022.000000  0    5384394.841  -4280558.363    382112.737
10 0 59662  74142.000000  0    5185601.722  -4349055.215   1279936.528
10 0 59662  74262.000000  0    4895654.663  -4337239.673   2155223.191
10 0 59662  74382.000000  0    4521026.344  -4243767.379   2992556.055
10 0 59662  74502.000000  0    4069695.306  -4068860.723   3777190.553
10 0 59662  74622.000000  0    3550974.317  -3814327.942   4495319.744
10 0 59662  74742.000000  0    2975312.998  -3483548.996   5134320.751
10 0 59662  74862.000000  0    2354082.296  -3081429.095   5682976.011
10 0 59662  74982.000000  0    1699345.099  -2614322.190   6131668.080
10 0 59662  75102.000000  0    1023617.505  -2089925.887   6472542.645
10 0 59662  75222.000000  0     339627.168  -1517151.052   6699639.903
10 0 59662  75342.000000  0    -339927.371   -905967.845   6808992.958
10 0 59662  75462.000000  0   -1002611.775   -267230.421   6798692.462
10 0 59662  75582.000000  0   -1636482.435    387515.809   6668917.629
10 0 59662  75702.000000  0   -2230301.050   1046242.435   6421933.323
10 0 59662  75822.000000  0   -2773733.955   1696658.144   6062053.064
10 0 59662  75942.000000  0   -3257533.124   2326437.416   5595568.601
10 0 59662  76062.000000  0   -3673696.845   2923455.043   5030646.643
10 0 59662  76182.000000  0   -4015606.691   3476021.823   4377191.383
10 0 59662  76302.000000  0   -4278137.894   3973116.690   3646675.799
10 0 59662  76422.000000  0   -4457741.074   4404611.224   2851943.119
10 0 59662  76542.000000  0   -4552491.922   4761481.056   2006980.384
10 0 59662  76662.000000  0   -4562107.363   5035998.365   1126668.664
10 0 59662  76782.000000  0   -4487929.127   5221899.825    226515.270
10 0 59662  76902.000000  0   -4332875.032   5314527.578   -677626.627
10 0 59662  77022.000000  0   -4101357.394   5310939.494  -1569847.783
10 0 59662  77142.000000  0   -3799169.071   5209980.922  -2434472.575
10 0 59662  77262.000000  0   -3433343.884   5012322.526  -3256340.748
10 0 59662  77382.000000  0   -3011993.481   4720459.262  -4021077.771
10 0 59662  77502.000000  0   -2544126.140   4338672.878  -4715345.208
10 0 59662  77622.000000  0   -2039452.551   3872960.939  -5327067.754
10 0 59662  77742.000000  0   -1508184.061   3330935.558  -5845635.332
10 0 59662  77862.000000  0    -960826.254   2721691.601  -6262078.343
10 0 59662  77982.000000  0    -407972.316   2055647.916  -6569211.502
10 0 59662  78102.000000  0     139898.742   1344366.902  -6761745.865
10 0 59662  78222.000000  0     672615.553    600354.719  -6836370.665
10 0 59662  78342.000000  0    1180499.003   -163154.717  -6791804.854
10 0 59662  78462.000000  0    1654534.036   -932430.751  -6628815.721
10 0 59662  78582.000000  0    2086525.195  -1693486.324  -6350206.135
10 0 59662  78702.000000  0    2469236.060  -2432325.525  -5960771.951
10 0 59662  78822.000000  0    2796509.941  -3135195.696  -5467229.571
10 0 59662  78942.000000  0    3063371.381  -3788843.391  -4878111.940
10 0 59662  79062.000000  0    3266104.031  -4380765.559  -4203629.893
99
